EMISAT                  
1 44078U 19018A   26141.59950951  .00000358  00000+0  11820-3 0  9999
2 44078  98.4653 200.5430 0017382 300.1431  59.8037 14.43673956376227
JILIN-1 GAOFEN 3A       
1 44312U 19032C   26141.48680507  .00007409  00000+0  24501-3 0  9995
2 44312  44.9729 143.8129 0003947 159.6736 200.4306 15.31969734383747
WT 1B                   
1 44316U 19032G   26141.57233249  .00008143  00000+0  31561-3 0  9996
2 44316  44.9725 206.1521 0007523  98.0980 262.0756 15.26619061383019
PROX-1                  
1 44339U 19036A   26141.54213878  .00009146  00000+0  89870-3 0  9998
2 44339  23.9960 292.1475 0006797  81.8956 278.2314 14.89902593369498
NPSAT1                  
1 44340U 19036B   26141.38459220  .00003689  00000+0  50859-3 0  9996
2 44340  24.0000  32.2820 0007593 267.1508  92.8118 14.74296294368535
FORMOSAT 7-3            
1 44343U 19036E   26140.95331514  .00003185  00000+0  17235-3 0  9998
2 44343  24.0006   5.9475 0000637 345.0772  14.9712 15.09568548379123
FORMOSAT 7-1            
1 44349U 19036L   26140.90803172  .00001608  00000+0  11255-3 0  9997
2 44349  23.9970 216.2862 0000588 189.4541 170.5949 14.96378290380562
FORMOSAT 7-4            
1 44350U 19036M   26141.46388962  .00001823  00000+0  13110-3 0  9997
2 44350  23.9984 274.6445 0000807 228.3326 131.7106 14.96375584380064
FORMOSAT 7-2            
1 44351U 19036N   26141.61962738  .00001814  00000+0  13033-3 0  9998
2 44351  23.9994 327.9080 0000359 225.0632 134.9840 14.96372975379608
FORMOSAT 7-6            
1 44353U 19036Q   26141.41945850  .00001562  00000+0  10858-3 0  9996
2 44353  23.9962 150.0724 0001328 136.9596 223.1009 14.96379878377808
FORMOSAT 7-5            
1 44358U 19036V   26141.13007442  .00001677  00000+0  11848-3 0  9993
2 44358  23.9982  90.7709 0000319 179.1955 180.8546 14.96379862378297
METEOR-M2 2             
1 44387U 19038A   26141.62130490 -.00000183  00000+0 -59124-4 0  9994
2 44387  98.9142 128.5168 0002403  88.5872 271.5582 14.24356936357513
GLOBAL-4                
1 44499U 19054E   26140.97970493  .00032896  00000+0  37668-3 0  9990
2 44499  45.0077  33.0637 0004456 172.5803 187.5160 15.61579282376103
ZY-1 02D                
1 44528U 19059A   26141.65128211  .00000246  00000+0  10032-3 0  9997
2 44528  98.3195 204.0736 0001354 147.1786 212.9485 14.35451147350531
TAURUS-1 (JINNIUZUO 1)  
1 44530U 19059C   26141.66346300  .00003597  00000+0  58455-3 0  9995
2 44530  98.6404 304.8550 0008932  43.4506 316.7402 14.71768133354745
ZHUHAI-1 03B            
1 44536U 19060C   26141.57723990  .00020630  00000+0  33794-3 0  9993
2 44536  97.5512 297.9438 0009177  60.7241 299.4928 15.52467896372197
ZHUHAI-1 03C            
1 44537U 19060D   26141.61471883  .00401739  71931-4  74753-3 0  9999
2 44537  97.5407 311.1554 0006569 288.6358  71.4206 16.01027501373010
ZHUHAI-1 03D            
1 44538U 19060E   26141.60758560  .00019681  00000+0  37630-3 0  9997
2 44538  97.5371 290.3312 0007658  48.3418 311.8486 15.48099825371960
ZHUHAI-1 03E            
1 44539U 19060F   26141.61322207  .00011934  00000+0  29998-3 0  9995
2 44539  97.5587 290.6638 0007267 116.4854 243.7137 15.40098762371676
GAOFEN-7                
1 44703U 19072A   26141.62872594  .00002796  00000+0  12724-3 0  9996
2 44703  97.2437 204.0908 0018009 126.1131 234.1776 15.21366853363606
JILIN-1 GAOFEN 2A       
1 44777U 19075A   26141.54082481  .00010044  00000+0  26632-3 0  9997
2 44777  97.4959 224.7247 0007033 166.5320 193.6114 15.38506450360784
NINGXIA-1 1             
1 44779U 19076A   26141.60236644 -.00000094  00000+0  23585-4 0  9999
2 44779  45.0063 298.6544 0010640  29.6576 330.4860 14.02035995334120
NINGXIA-1 5             
1 44783U 19076E   26141.61656684 -.00000289  00000+0 -10320-3 0  9994
2 44783  45.0063 297.9430 0010575  18.9605 341.1621 14.02082966334047
KL-ALPHA A              
1 44785U 19077A   26141.63027014  .00000212  00000+0  28553-3 0  9999
2 44785  88.9262 225.4663 0011187 175.3369 184.7891 13.56040646322139
CARTOSAT-3              
1 44804U 19081A   26141.61442977  .00003385  00000+0  16369-3 0  9999
2 44804  97.4313 203.9055 0011171 239.8524 120.1604 15.19240935359434
JILIN-1 GAOFEN 2B       
1 44836U 19086A   26141.56090610  .00004291  00000+0  19976-3 0  9990
2 44836  97.4885 213.7244 0015315  57.6560 302.6156 15.20368478356444
TIANQIN 1 (CAS-6)       
1 44879U 19093A   26141.59099529  .00002883  00000+0  26661-3 0  9990
2 44879  97.7803 225.6266 0012478 136.0914 224.1301 14.95291388348078
ETRSS-1                 
1 44880U 19093B   26141.60526907  .00002287  00000+0  21045-3 0  9998
2 44880  97.7822 226.0775 0012448 136.7950 223.4250 14.95698769348085
