OBJECT_NAME,OBJECT_ID,EPOCH,MEAN_MOTION,ECCENTRICITY,INCLINATION,RA_OF_ASC_NODE,ARG_OF_PERICENTER,MEAN_ANOMALY,EPHEMERIS_TYPE,CLASSIFICATION_TYPE,NORAD_CAT_ID,ELEMENT_SET_NO,REV_AT_EPOCH,BSTAR,MEAN_MOTION_DOT,MEAN_MOTION_DDOT
EMISAT,2019-018A,2026-05-21T14:23:17.621664,14.43673956,.00173824,98.4653,200.5430,300.1431,59.8037,0,U,44078,999,37622,.11819828E-3,.358E-5,0
JILIN-1 GAOFEN 3A,2019-032C,2026-05-21T11:40:59.958048,15.31969734,.00039476,44.9729,143.8129,159.6736,200.4306,0,U,44312,999,38374,.2450109E-3,.7409E-4,0
WT 1B,2019-032G,2026-05-21T13:44:09.527136,15.26619061,.00075239,44.9725,206.1521,98.0980,262.0756,0,U,44316,999,38301,.31560698E-3,.8143E-4,0
PROX-1,2019-036A,2026-05-21T13:00:40.790592,14.89902593,.00067979,23.9960,292.1475,81.8956,278.2314,0,U,44339,999,36949,.89870483E-3,.9146E-4,0
NPSAT1,2019-036B,2026-05-21T09:13:48.766080,14.74296294,.00075938,24.0000,32.2820,267.1508,92.8118,0,U,44340,999,36853,.50859383E-3,.3689E-4,0
FORMOSAT 7-3,2019-036E,2026-05-20T22:52:46.428096,15.09568548,.00006379,24.0006,5.9475,345.0772,14.9712,0,U,44343,999,37912,.17234623E-3,.3185E-4,0
FORMOSAT 7-1,2019-036L,2026-05-20T21:47:33.940608,14.96378290,.00005887,23.9970,216.2862,189.4541,170.5949,0,U,44349,999,38056,.11254709E-3,.1608E-4,0
FORMOSAT 7-4,2019-036M,2026-05-21T11:08:00.063168,14.96375584,.00008079,23.9984,274.6445,228.3326,131.7106,0,U,44350,999,38006,.1311008E-3,.1823E-4,0
FORMOSAT 7-2,2019-036N,2026-05-21T14:52:15.805632,14.96372975,.0000359,23.9994,327.9080,225.0632,134.9840,0,U,44351,999,37960,.13032954E-3,.1814E-4,0
FORMOSAT 7-6,2019-036Q,2026-05-21T10:04:01.214400,14.96379878,.00013288,23.9962,150.0724,136.9596,223.1009,0,U,44353,999,37780,.108584E-3,.1562E-4,0
FORMOSAT 7-5,2019-036V,2026-05-21T03:07:18.429888,14.96379862,.00003198,23.9982,90.7709,179.1955,180.8546,0,U,44358,999,37829,.11848266E-3,.1677E-4,0
METEOR-M2 2,2019-038A,2026-05-21T14:54:40.743360,14.24356936,.0002403,98.9142,128.5168,88.5872,271.5582,0,U,44387,999,35751,-.59124342E-4,-.183E-5,0
GLOBAL-4,2019-054E,2026-05-20T23:30:46.505952,15.61579282,.00044569,45.0077,33.0637,172.5803,187.5160,0,U,44499,999,37610,.37667681E-3,.32896E-3,0
ZY-1 02D,2019-059A,2026-05-21T15:37:50.774304,14.35451147,.00013543,98.3195,204.0736,147.1786,212.9485,0,U,44528,999,35053,.10031628E-3,.246E-5,0
TAURUS-1 (JINNIUZUO 1),2019-059C,2026-05-21T15:55:23.203200,14.71768133,.00089325,98.6404,304.8550,43.4506,316.7402,0,U,44530,999,35474,.58454624E-3,.3597E-4,0
ZHUHAI-1 03B,2019-060C,2026-05-21T13:51:13.527360,15.52467896,.00091777,97.5512,297.9438,60.7241,299.4928,0,U,44536,999,37219,.33794186E-3,.2063E-3,0
ZHUHAI-1 03C,2019-060D,2026-05-21T14:45:11.706912,16.01027501,.00065693,97.5407,311.1554,288.6358,71.4206,0,U,44537,999,37301,.74753302E-3,.401739E-2,.71931095E-4
ZHUHAI-1 03D,2019-060E,2026-05-21T14:34:55.395840,15.48099825,.00076589,97.5371,290.3312,48.3418,311.8486,0,U,44538,999,37196,.37629758E-3,.19681E-3,0
ZHUHAI-1 03E,2019-060F,2026-05-21T14:43:02.386848,15.40098762,.00072672,97.5587,290.6638,116.4854,243.7137,0,U,44539,999,37167,.29998098E-3,.11934E-3,0
GAOFEN-7,2019-072A,2026-05-21T15:05:21.921216,15.21366853,.00180093,97.2437,204.0908,126.1131,234.1776,0,U,44703,999,36360,.12723657E-3,.2796E-4,0
JILIN-1 GAOFEN 2A,2019-075A,2026-05-21T12:58:47.263584,15.38506450,.00070335,97.4959,224.7247,166.5320,193.6114,0,U,44777,999,36078,.26631805E-3,.10044E-3,0
NINGXIA-1 1,2019-076A,2026-05-21T14:27:24.460416,14.02035995,.00106409,45.0063,298.6544,29.6576,330.4860,0,U,44779,999,33412,.23585051E-4,-.94E-6,0
NINGXIA-1 5,2019-076E,2026-05-21T14:47:51.374976,14.02082966,.00105757,45.0063,297.9430,18.9605,341.1621,0,U,44783,999,33404,-.10320303E-3,-.289E-5,0
KL-ALPHA A,2019-077A,2026-05-21T15:07:35.340096,13.56040646,.00111876,88.9262,225.4663,175.3369,184.7891,0,U,44785,999,32213,.28553231E-3,.212E-5,0
CARTOSAT-3,2019-081A,2026-05-21T14:44:46.732128,15.19240935,.00111717,97.4313,203.9055,239.8524,120.1604,0,U,44804,999,35943,.1636929E-3,.3385E-4,0
JILIN-1 GAOFEN 2B,2019-086A,2026-05-21T13:27:42.287040,15.20368478,.00153154,97.4885,213.7244,57.6560,302.6156,0,U,44836,999,35644,.19975594E-3,.4291E-4,0
TIANQIN 1 (CAS-6),2019-093A,2026-05-21T14:11:01.993056,14.95291388,.00124786,97.7803,225.6266,136.0914,224.1301,0,U,44879,999,34807,.26661153E-3,.2883E-4,0
ETRSS-1,2019-093B,2026-05-21T14:31:35.247648,14.95698769,.00124481,97.7822,226.0775,136.7950,223.4250,0,U,44880,999,34808,.21045089E-3,.2287E-4,0
